{
  "links" : {
    "next" : "https://api.nasa.gov/neo/rest/v1/feed?start_date=2011-03-16&end_date=2011-03-16&detailed=true&api_key=t0TVs3DtDT2H8Oy2Zy8m2eVrNsAVKAexjcZXUckd",
    "prev" : "https://api.nasa.gov/neo/rest/v1/feed?start_date=2011-03-14&end_date=2011-03-14&detailed=true&api_key=t0TVs3DtDT2H8Oy2Zy8m2eVrNsAVKAexjcZXUckd",
    "self" : "https://api.nasa.gov/neo/rest/v1/feed?start_date=2011-03-15&end_date=2011-03-15&detailed=true&api_key=t0TVs3DtDT2H8Oy2Zy8m2eVrNsAVKAexjcZXUckd"
  },
  "element_count" : 5,
  "near_earth_objects" : {
    "2011-03-15" : [ {
      "links" : {
        "self" : "https://api.nasa.gov/neo/rest/v1/neo/2373135?api_key=t0TVs3DtDT2H8Oy2Zy8m2eVrNsAVKAexjcZXUckd"
      },
      "neo_reference_id" : "2373135",
      "name" : "373135 (2011 SD173)",
      "nasa_jpl_url" : "http://ssd.jpl.nasa.gov/sbdb.cgi?sstr=2373135",
      "absolute_magnitude_h" : 19.5,
      "estimated_diameter" : {
        "kilometers" : {
          "estimated_diameter_min" : 0.3346223745,
          "estimated_diameter_max" : 0.7482383761
        },
        "meters" : {
          "estimated_diameter_min" : 334.6223744549,
          "estimated_diameter_max" : 748.2383760735
        },
        "miles" : {
          "estimated_diameter_min" : 0.2079246394,
          "estimated_diameter_max" : 0.464933628
        },
        "feet" : {
          "estimated_diameter_min" : 1097.8424710066,
          "estimated_diameter_max" : 2454.8503937571
        }
      },
      "is_potentially_hazardous_asteroid" : true,
      "close_approach_data" : [ {
        "close_approach_date" : "2011-03-15",
        "epoch_date_close_approach" : 1300172400000,
        "relative_velocity" : {
          "kilometers_per_second" : "26.8748050922",
          "kilometers_per_hour" : "96749.298331997",
          "miles_per_hour" : "60116.2515107901"
        },
        "miss_distance" : {
          "astronomical" : "0.476921729",
          "lunar" : "185.5225524902",
          "kilometers" : "71346480",
          "miles" : "44332644"
        },
        "orbiting_body" : "Earth"
      } ],
      "orbital_data" : {
        "orbit_id" : "63",
        "orbit_determination_date" : "2017-04-06 09:22:29",
        "orbit_uncertainty" : "0",
        "minimum_orbit_intersection" : ".00190026",
        "jupiter_tisserand_invariant" : "4.123",
        "epoch_osculation" : "2458000.5",
        "eccentricity" : ".4975274034606143",
        "semi_major_axis" : "1.652818488366978",
        "inclination" : "4.38937420060572",
        "ascending_node_longitude" : "203.1808999991558",
        "orbital_period" : "776.1330371801811",
        "perihelion_distance" : ".8304959974580578",
        "perihelion_argument" : "59.38136165844735",
        "aphelion_distance" : "2.475140979275898",
        "perihelion_time" : "2458007.555883177568",
        "mean_anomaly" : "356.727213219588",
        "mean_motion" : ".4638380055408274",
        "equinox" : "J2000"
      }
    }, {
      "links" : {
        "self" : "https://api.nasa.gov/neo/rest/v1/neo/3072291?api_key=t0TVs3DtDT2H8Oy2Zy8m2eVrNsAVKAexjcZXUckd"
      },
      "neo_reference_id" : "3072291",
      "name" : "(2001 FO127)",
      "nasa_jpl_url" : "http://ssd.jpl.nasa.gov/sbdb.cgi?sstr=3072291",
      "absolute_magnitude_h" : 27.5,
      "estimated_diameter" : {
        "kilometers" : {
          "estimated_diameter_min" : 0.008405334,
          "estimated_diameter_max" : 0.0187948982
        },
        "meters" : {
          "estimated_diameter_min" : 8.4053340207,
          "estimated_diameter_max" : 18.7948982439
        },
        "miles" : {
          "estimated_diameter_min" : 0.0052228308,
          "estimated_diameter_max" : 0.0116786047
        },
        "feet" : {
          "estimated_diameter_min" : 27.5765560686,
          "estimated_diameter_max" : 61.6630539546
        }
      },
      "is_potentially_hazardous_asteroid" : false,
      "close_approach_data" : [ {
        "close_approach_date" : "2011-03-15",
        "epoch_date_close_approach" : 1300172400000,
        "relative_velocity" : {
          "kilometers_per_second" : "8.7585983929",
          "kilometers_per_hour" : "31530.954214472",
          "miles_per_hour" : "19592.1087450979"
        },
        "miss_distance" : {
          "astronomical" : "0.1656816216",
          "lunar" : "64.4501495361",
          "kilometers" : "24785618",
          "miles" : "15401068"
        },
        "orbiting_body" : "Earth"
      } ],
      "orbital_data" : {
        "orbit_id" : "15",
        "orbit_determination_date" : "2017-04-06 09:16:26",
        "orbit_uncertainty" : "6",
        "minimum_orbit_intersection" : ".017912",
        "jupiter_tisserand_invariant" : "6.665",
        "epoch_osculation" : "2458000.5",
        "eccentricity" : ".158516791292177",
        "semi_major_axis" : ".88855079195061",
        "inclination" : "7.298970345630948",
        "ascending_node_longitude" : "189.1403375547427",
        "orbital_period" : "305.9298222018328",
        "perihelion_distance" : ".7477005715104766",
        "perihelion_argument" : "200.9260752535374",
        "aphelion_distance" : "1.029401012390744",
        "perihelion_time" : "2457981.127835258892",
        "mean_anomaly" : "22.79601006729512",
        "mean_motion" : "1.176740460962629",
        "equinox" : "J2000"
      }
    }, {
      "links" : {
        "self" : "https://api.nasa.gov/neo/rest/v1/neo/3395961?api_key=t0TVs3DtDT2H8Oy2Zy8m2eVrNsAVKAexjcZXUckd"
      },
      "neo_reference_id" : "3395961",
      "name" : "(2007 WU3)",
      "nasa_jpl_url" : "http://ssd.jpl.nasa.gov/sbdb.cgi?sstr=3395961",
      "absolute_magnitude_h" : 23.8,
      "estimated_diameter" : {
        "kilometers" : {
          "estimated_diameter_min" : 0.046190746,
          "estimated_diameter_max" : 0.1032856481
        },
        "meters" : {
          "estimated_diameter_min" : 46.1907460282,
          "estimated_diameter_max" : 103.2856480504
        },
        "miles" : {
          "estimated_diameter_min" : 0.0287015901,
          "estimated_diameter_max" : 0.0641787064
        },
        "feet" : {
          "estimated_diameter_min" : 151.544447199,
          "estimated_diameter_max" : 338.8636855496
        }
      },
      "is_potentially_hazardous_asteroid" : false,
      "close_approach_data" : [ {
        "close_approach_date" : "2011-03-15",
        "epoch_date_close_approach" : 1300172400000,
        "relative_velocity" : {
          "kilometers_per_second" : "6.6219884745",
          "kilometers_per_hour" : "23839.1585083595",
          "miles_per_hour" : "14812.7260187082"
        },
        "miss_distance" : {
          "astronomical" : "0.1895134854",
          "lunar" : "73.7207489014",
          "kilometers" : "28350814",
          "miles" : "17616380"
        },
        "orbiting_body" : "Earth"
      } ],
      "orbital_data" : {
        "orbit_id" : "12",
        "orbit_determination_date" : "2017-04-06 09:05:03",
        "orbit_uncertainty" : "2",
        "minimum_orbit_intersection" : ".0401482",
        "jupiter_tisserand_invariant" : "6.008",
        "epoch_osculation" : "2458000.5",
        "eccentricity" : ".2040117936646561",
        "semi_major_axis" : "1.01128749462238",
        "inclination" : "2.3933154479708",
        "ascending_node_longitude" : "177.6882453804585",
        "orbital_period" : "371.4585697283394",
        "perihelion_distance" : ".804972918933832",
        "perihelion_argument" : "351.9745033320571",
        "aphelion_distance" : "1.217602070310928",
        "perihelion_time" : "2457859.058519262392",
        "mean_anomaly" : "137.0783640899106",
        "mean_motion" : ".9691524959655139",
        "equinox" : "J2000"
      }
    } ]
  }
}